{"type": "FeatureCollection", "features": [ {"type": "Feature", "properties": {"norad_id": 66549, "name": "SHIJIAN-28", "group": "last-30-days", "lat": -9.761340530457723, "lon": -127.57969243665904, "alt_km": 17403.080641535857, "timestamp": "2025-12-03T15:48:01.920090+00:00", "meta": {"OBJECT_NAME": "SHIJIAN-28", "OBJECT_ID": "2025-277A", "EPOCH": "2025-11-30T18:06:43.124256", "MEAN_MOTION": 2.28019775, "ECCENTRICITY": 0.7300519, "INCLINATION": 14.4344, "RA_OF_ASC_NODE": 275.4056, "ARG_OF_PERICENTER": 179.5026, "MEAN_ANOMALY": 182.358, "EPHEMERIS_TYPE": 0, "CLASSIFICATION_TYPE": "U", "NORAD_CAT_ID": 66549, "ELEMENT_SET_NO": 999, "REV_AT_EPOCH": 4, "BSTAR": 0.00062085, "MEAN_MOTION_DOT": 6.315e-05, "MEAN_MOTION_DDOT": 0}, "tle": {"line1": "1 66549U 25277A   25334.75466579  .00006315  00000+0  62085-3 0  9997", "line2": "2 66549  14.4344 275.4056 7300519 179.5026 182.3580  2.28019775    48"}}, "geometry": {"type": "Point", "coordinates": [-127.57969243665904, -9.761340530457723]}}, {"type": "Feature", "properties": {"norad_id": 66550, "name": "CZ-7A R/B", "group": "last-30-days", "lat": 0.29666784630912557, "lon": -84.5749794055624, "alt_km": 34213.00139395695, "timestamp": "2025-12-03T15:48:01.920102+00:00", "meta": {"OBJECT_NAME": "CZ-7A R/B", "OBJECT_ID": "2025-277B", "EPOCH": "2025-12-01T03:57:29.558880", "MEAN_MOTION": 2.40161271, "ECCENTRICITY": 0.72362879, "INCLINATION": 14.4278, "RA_OF_ASC_NODE": 275.378, "ARG_OF_PERICENTER": 178.5774, "MEAN_ANOMALY": 186.2906, "EPHEMERIS_TYPE": 0, "CLASSIFICATION_TYPE": "U", "NORAD_CAT_ID": 66550, "ELEMENT_SET_NO": 999, "REV_AT_EPOCH": 5, "BSTAR": 4.4603974e-05, "MEAN_MOTION_DOT": 0.00016399, "MEAN_MOTION_DDOT": -7.1945e-08}, "tle": {"line1": "1 66550U 25277B   25335.16492545  .00016399 -71945-7  44604-4 0  9993", "line2": "2 66550  14.4278 275.3780 7236287 178.5774 186.2906  2.40161271    57"}}, "geometry": {"type": "Point", "coordinates": [-84.5749794055624, 0.29666784630912557]}}, {"type": "Feature", "properties": {"norad_id": 66554, "name": "GLOBAL-33", "group": "last-30-days", "lat": -19.861042533919868, "lon": 85.75419102206315, "alt_km": 470.20514999533407, "timestamp": "2025-12-03T15:48:01.920111+00:00", "meta": {"OBJECT_NAME": "GLOBAL-33", "OBJECT_ID": "2025-267A", "EPOCH": "2025-12-03T06:32:27.074976", "MEAN_MOTION": 15.3127627, "ECCENTRICITY": 0.00055287, "INCLINATION": 42.0184, "RA_OF_ASC_NODE": 111.6349, "ARG_OF_PERICENTER": 345.1412, "MEAN_ANOMALY": 14.9262, "EPHEMERIS_TYPE": 0, "CLASSIFICATION_TYPE": "U", "NORAD_CAT_ID": 66554, "ELEMENT_SET_NO": 999, "REV_AT_EPOCH": 195, "BSTAR": 0.00053931482, "MEAN_MOTION_DOT": 0.00016435, "MEAN_MOTION_DDOT": 0}, "tle": {"line1": "1 66554U 25267A   25337.27253559  .00016435  00000+0  53931-3 0  9998", "line2": "2 66554  42.0184 111.6349 0005528 345.1412  14.9262 15.31276270  1955"}}, "geometry": {"type": "Point", "coordinates": [85.75419102206315, -19.861042533919868]}}, {"type": "Feature", "properties": {"norad_id": 66555, "name": "ELECTRON KICK STAGE R/B", "group": "last-30-days", "lat": 1.3060336787666689, "lon": 110.78221161035876, "alt_km": 464.0184853343735, "timestamp": "2025-12-03T15:48:01.920121+00:00", "meta": {"OBJECT_NAME": "ELECTRON KICK STAGE R/B", "OBJECT_ID": "2025-267B", "EPOCH": "2025-12-03T01:42:41.033664", "MEAN_MOTION": 15.32103317, "ECCENTRICITY": 0.00074177, "INCLINATION": 42.0171, "RA_OF_ASC_NODE": 112.7243, "ARG_OF_PERICENTER": 343.2499, "MEAN_ANOMALY": 16.8092, "EPHEMERIS_TYPE": 0, "CLASSIFICATION_TYPE": "U", "NORAD_CAT_ID": 66555, "ELEMENT_SET_NO": 999, "REV_AT_EPOCH": 192, "BSTAR": 0.00097714165, "MEAN_MOTION_DOT": 0.00030845, "MEAN_MOTION_DDOT": 0}, "tle": {"line1": "1 66555U 25267B   25337.07130826  .00030845  00000+0  97714-3 0  9996", "line2": "2 66555  42.0171 112.7243 0007417 343.2499  16.8092 15.32103317  1921"}}, "geometry": {"type": "Point", "coordinates": [110.78221161035876, 1.3060336787666689]}}, {"type": "Feature", "properties": {"norad_id": 66557, "name": "STARLINK-35699", "group": "last-30-days", "lat": -27.842514774882414, "lon": 29.429860231085758, "alt_km": 348.0184552931769, "timestamp": "2025-12-03T15:48:01.920131+00:00", "meta": {"OBJECT_NAME": "STARLINK-35699", "OBJECT_ID": "2025-268A", "EPOCH": "2025-12-03T06:00:02.999808", "MEAN_MOTION": 15.75348622, "ECCENTRICITY": 0.00016021, "INCLINATION": 42.9989, "RA_OF_ASC_NODE": 177.3766, "ARG_OF_PERICENTER": 286.3099, "MEAN_ANOMALY": 138.9586, "EPHEMERIS_TYPE": 0, "CLASSIFICATION_TYPE": "U", "NORAD_CAT_ID": 66557, "ELEMENT_SET_NO": 999, "REV_AT_EPOCH": 314, "BSTAR": -0.0064948037, "MEAN_MOTION_DOT": -0.00909034, "MEAN_MOTION_DDOT": 0}, "tle": {"line1": "1 66557U 25268A   25337.25003472 -.00909034  00000+0 -64948-2 0  9994", "line2": "2 66557  42.9989 177.3766 0001602 286.3099 138.9586 15.75348622  3146"}}, "geometry": {"type": "Point", "coordinates": [29.429860231085758, -27.842514774882414]}}, {"type": "Feature", "properties": {"norad_id": 66558, "name": "STARLINK-35695", "group": "last-30-days", "lat": -28.906503357385958, "lon": 31.235555876770427, "alt_km": 348.0446456032605, "timestamp": "2025-12-03T15:48:01.920141+00:00", "meta": {"OBJECT_NAME": "STARLINK-35695", "OBJECT_ID": "2025-268B", "EPOCH": "2025-12-03T06:00:02.999808", "MEAN_MOTION": 15.75352274, "ECCENTRICITY": 0.00016668, "INCLINATION": 42.9989, "RA_OF_ASC_NODE": 177.3718, "ARG_OF_PERICENTER": 286.3685, "MEAN_ANOMALY": 140.8179, "EPHEMERIS_TYPE": 0, "CLASSIFICATION_TYPE": "U", "NORAD_CAT_ID": 66558, "ELEMENT_SET_NO": 999, "REV_AT_EPOCH": 314, "BSTAR": -0.006551289, "MEAN_MOTION_DOT": -0.00916297, "MEAN_MOTION_DDOT": 0}, "tle": {"line1": "1 66558U 25268B   25337.25003472 -.00916297  00000+0 -65513-2 0  9993", "line2": "2 66558  42.9989 177.3718 0001666 286.3685 140.8179 15.75352274  3143"}}, "geometry": {"type": "Point", "coordinates": [31.235555876770427, -28.906503357385958]}}, {"type": "Feature", "properties": {"norad_id": 66559, "name": "STARLINK-35419", "group": "last-30-days", "lat": -29.945946579303833, "lon": 33.0790268697624, "alt_km": 348.0129772107939, "timestamp": "2025-12-03T15:48:01.920151+00:00", "meta": {"OBJECT_NAME": "STARLINK-35419", "OBJECT_ID": "2025-268C", "EPOCH": "2025-12-03T06:00:02.999808", "MEAN_MOTION": 15.75357164, "ECCENTRICITY": 0.0001792, "INCLINATION": 42.9989, "RA_OF_ASC_NODE": 177.3674, "ARG_OF_PERICENTER": 283.9855, "MEAN_ANOMALY": 145.1241, "EPHEMERIS_TYPE": 0, "CLASSIFICATION_TYPE": "U", "NORAD_CAT_ID": 66559, "ELEMENT_SET_NO": 999, "REV_AT_EPOCH": 314, "BSTAR": -0.0066798345, "MEAN_MOTION_DOT": -0.00932654, "MEAN_MOTION_DDOT": 0}, "tle": {"line1": "1 66559U 25268C   25337.25003472 -.00932654  00000+0 -66798-2 0  9995", "line2": "2 66559  42.9989 177.3674 0001792 283.9855 145.1241 15.75357164  3148"}}, "geometry": {"type": "Point", "coordinates": [33.0790268697624, -29.945946579303833]}}, {"type": "Feature", "properties": {"norad_id": 66560, "name": "STARLINK-35411", "group": "last-30-days", "lat": -30.959707973620368, "lon": 34.96156066751698, "alt_km": 347.9738290061814, "timestamp": "2025-12-03T15:48:01.920162+00:00", "meta": {"OBJECT_NAME": "STARLINK-35411", "OBJECT_ID": "2025-268D", "EPOCH": "2025-12-03T06:00:02.999808", "MEAN_MOTION": 15.75354512, "ECCENTRICITY": 0.0001723, "INCLINATION": 42.999, "RA_OF_ASC_NODE": 177.3625, "ARG_OF_PERICENTER": 279.9575, "MEAN_ANOMALY": 151.0688, "EPHEMERIS_TYPE": 0, "CLASSIFICATION_TYPE": "U", "NORAD_CAT_ID": 66560, "ELEMENT_SET_NO": 999, "REV_AT_EPOCH": 314, "BSTAR": -0.0066322969, "MEAN_MOTION_DOT": -0.00926572, "MEAN_MOTION_DDOT": 0}, "tle": {"line1": "1 66560U 25268D   25337.25003472 -.00926572  00000+0 -66323-2 0  9993", "line2": "2 66560  42.9990 177.3625 0001723 279.9575 151.0688 15.75354512  3141"}}, "geometry": {"type": "Point", "coordinates": [34.96156066751698, -30.959707973620368]}}, {"type": "Feature", "properties": {"norad_id": 66561, "name": "STARLINK-35305", "group": "last-30-days", "lat": -32.90154421150584, "lon": 38.84841626359733, "alt_km": 347.85858720351825, "timestamp": "2025-12-03T15:48:01.920171+00:00", "meta": {"OBJECT_NAME": "STARLINK-35305", "OBJECT_ID": "2025-268E", "EPOCH": "2025-12-03T06:00:02.999808", "MEAN_MOTION": 15.75362813, "ECCENTRICITY": 0.00015962, "INCLINATION": 42.9989, "RA_OF_ASC_NODE": 177.3528, "ARG_OF_PERICENTER": 265.2685, "MEAN_ANOMALY": 169.5865, "EPHEMERIS_TYPE": 0, "CLASSIFICATION_TYPE": "U", "NORAD_CAT_ID": 66561, "ELEMENT_SET_NO": 999, "REV_AT_EPOCH": 309, "BSTAR": -0.006717656, "MEAN_MOTION_DOT": -0.00937524, "MEAN_MOTION_DDOT": 0}, "tle": {"line1": "1 66561U 25268E   25337.25003472 -.00937524  00000+0 -67177-2 0  9991", "line2": "2 66561  42.9989 177.3528 0001596 265.2685 169.5865 15.75362813  3098"}}, "geometry": {"type": "Point", "coordinates": [38.84841626359733, -32.90154421150584]}}, {"type": "Feature", "properties": {"norad_id": 66562, "name": "STARLINK-35579", "group": "last-30-days", "lat": -31.9473377490566, "lon": 36.887938476221514, "alt_km": 347.7418441927048, "timestamp": "2025-12-03T15:48:01.920180+00:00", "meta": {"OBJECT_NAME": "STARLINK-35579", "OBJECT_ID": "2025-268F", "EPOCH": "2025-12-03T06:00:02.999808", "MEAN_MOTION": 15.75360248, "ECCENTRICITY": 0.00016318, "INCLINATION": 42.9989, "RA_OF_ASC_NODE": 177.3574, "ARG_OF_PERICENTER": 259.1081, "MEAN_ANOMALY": 173.835, "EPHEMERIS_TYPE": 0, "CLASSIFICATION_TYPE": "U", "NORAD_CAT_ID": 66562, "ELEMENT_SET_NO": 999, "REV_AT_EPOCH": 314, "BSTAR": -0.0067339659, "MEAN_MOTION_DOT": -0.00939481, "MEAN_MOTION_DDOT": 0}, "tle": {"line1": "1 66562U 25268F   25337.25003472 -.00939481  00000+0 -67340-2 0  9998", "line2": "2 66562  42.9989 177.3574 0001631 259.1081 173.8350 15.75360248  3145"}}, "geometry": {"type": "Point", "coordinates": [36.887938476221514, -31.9473377490566]}}]}